NORAD_CAT_ID,OBJECT_NAME,OBJECT_TYPE,EPOCH,MEAN_MOTION,ECCENTRICITY,INCLINATION,RA_OF_ASC_NODE,ARG_OF_PERICENTER,MEAN_ANOMALY,BSTAR,MEAN_MOTION_DOT,MEAN_MOTION_DDOT,TLE_LINE0,TLE_LINE1,TLE_LINE2,SEMIMAJOR_AXIS,PERIOD,APOGEE,PERIGEE,DECAYED
52500.0,STARLINK-3866,PAYLOAD,2023-08-11 21:56:36,15.0883303,0.0002203,53.2167,302.4196,72.3967,287.7266,0.0001957,2.827e-05,0.0,0 STARLINK-3866,1 52500U 22049BB  23223.91431252  .00002827  00000-0  19570-3 0  9992,2 52500  53.2167 302.4196 0002203  72.3967 287.7266 15.08833030 70662,6917.902,95.438,541.291,538.243,0.0
52500.0,STARLINK-3866,PAYLOAD,2023-08-12 10:39:41,15.0884673,0.0001008,53.2165,300.0448,76.8455,283.2649,0.0010114,0.00015848,0.0,0 STARLINK-3866,1 52500U 22049BB  23224.44422842  .00015848  00000-0  10114-2 0  9997,2 52500  53.2165 300.0448 0001008  76.8455 283.2649 15.08846730 70743,6917.86,95.437,540.422,539.027,0.0
52500.0,STARLINK-3866,PAYLOAD,2023-08-12 21:47:23,15.0884649,0.0001273,53.2165,297.9634,70.1137,289.9993,0.00051551,7.927e-05,0.0,0 STARLINK-3866,1 52500U 22049BB  23224.90790920  .00007927  00000-0  51551-3 0  9993,2 52500  53.2165 297.9634 0001273  70.1137 289.9993 15.08846490 70818,6917.861,95.437,540.606,538.845,0.0
52500.0,STARLINK-3866,PAYLOAD,2023-08-13 05:44:19,15.08838946,0.0001157,53.2164,296.4766,77.0585,283.0536,0.0002864,4.273e-05,0.0,0 STARLINK-3866,1 52500U 22049BB  23225.23911070  .00004273  00000-0  28640-3 0  9995,2 52500  53.2164 296.4766 0001157  77.0585 283.0536 15.08838946 70861,6917.884,95.438,540.549,538.948,0.0
52500.0,STARLINK-3866,PAYLOAD,2023-08-14 10:21:15,15.08841595,0.0001223,53.2163,291.1219,85.7522,274.361,0.00024863,3.671e-05,0.0,0 STARLINK-3866,1 52500U 22049BB  23226.43143219  .00003671  00000-0  24863-3 0  9994,2 52500  53.2163 291.1219 0001223  85.7522 274.3610 15.08841595 71047,6917.876,95.437,540.587,538.894,0.0
52500.0,STARLINK-3866,PAYLOAD,2023-08-15 13:22:48,15.08845791,0.0001143,53.2155,286.0658,84.8154,275.2968,0.00019076,2.75e-05,0.0,0 STARLINK-3866,1 52500U 22049BB  23227.55751053  .00002750  00000-0  19076-3 0  9996,2 52500  53.2155 286.0658 0001143  84.8154 275.2968 15.08845791 71217,6917.863,95.437,540.518,538.937,0.0
52500.0,STARLINK-3866,PAYLOAD,2023-08-15 21:19:44,15.08840738,0.0001184,53.2163,284.5796,76.5935,283.5189,0.0001567,2.207e-05,0.0,0 STARLINK-3866,1 52500U 22049BB  23227.88871370  .00002207  00000-0  15670-3 0  9990,2 52500  53.2163 284.5796 0001184  76.5935 283.5189 15.08840738 71260,6917.878,95.438,540.562,538.924,0.0
52500.0,STARLINK-3866,PAYLOAD,2023-08-17 09:53:36,15.08846541,0.0001279,53.2163,277.7394,91.9088,268.205,0.00017279,2.464e-05,0.0,0 STARLINK-3866,1 52500U 22049BB  23229.41223158  .00002464  00000-0  17279-3 0  9998,2 52500  53.2163 277.7394 0001279  91.9088 268.2050 15.08846541 71493,6917.86,95.437,540.61,538.841,0.0
52500.0,STARLINK-3866,PAYLOAD,2023-08-18 09:44:24,15.08838761,0.0001216,53.2153,273.2809,92.6503,267.4629,8.074e-05,9.97e-06,0.0,0 STARLINK-3866,1 52500U 22049BB  23230.40583660  .00000997  00000-0  80740-4 0  9999,2 52500  53.2153 273.2809 0001216  92.6503 267.4629 15.08838761 71640,6917.884,95.438,540.59,538.908,0.0
52500.0,STARLINK-3866,PAYLOAD,2023-08-20 03:04:26,15.08837782,0.0001243,53.2149,265.5498,92.0069,268.1065,0.00013651,1.885e-05,0.0,0 STARLINK-3866,1 52500U 22049BB  23232.12807971  .00001885  00000-0  13651-3 0  9997,2 52500  53.2149 265.5498 0001243  92.0069 268.1065 15.08837782 71907,6917.887,95.438,540.612,538.892,0.0
52500.0,STARLINK-3866,PAYLOAD,2023-08-21 09:16:45,15.08841177,0.0001294,53.2151,259.8999,90.7129,269.4011,9.087e-05,1.159e-05,0.0,0 STARLINK-3866,1 52500U 22049BB  23233.38663844  .00001159  00000-0  90870-4 0  9998,2 52500  53.2151 259.8999 0001294  90.7129 269.4011 15.08841177 72099,6917.877,95.437,540.637,538.847,0.0
52500.0,STARLINK-3866,PAYLOAD,2023-08-22 02:46:00,15.08836027,0.0001255,53.216,256.6289,89.6664,270.4472,9.239e-05,1.183e-05,0.0,0 STARLINK-3866,1 52500U 22049BB  23234.11528498  .00001183  00000-0  92390-4 0  9991,2 52500  53.2160 256.6289 0001255  89.6664 270.4472 15.08836027 72208,6917.893,95.438,540.626,538.889,0.0
52500.0,STARLINK-3866,PAYLOAD,2023-08-23 10:33:42,15.08850232,0.0001456,53.2159,250.6816,90.7718,269.3441,8.6924e-05,1.096e-05,0.0,0 STARLINK-3866,1 52500U 22049BB  23235.44007529  .00001096  00000-0  86924-4 0  9994,2 52500  53.2159 250.6816 0001456  90.7718 269.3441 15.08850232 72401,6917.849,95.437,540.721,538.707,0.0
52500.0,STARLINK-3866,PAYLOAD,2023-08-24 07:13:42,15.08885019,0.0001077,53.2156,246.8171,87.9426,272.1689,-0.00067732,-0.00011064,0.0,0 STARLINK-3866,1 52500U 22049BB  23236.30119083 -.00011064  00000-0 -67732-3 0  9992,2 52500  53.2156 246.8171 0001077  87.9426 272.1689 15.08885019 72533,6917.743,95.435,540.353,538.863,0.0
52500.0,STARLINK-3866,PAYLOAD,2023-08-25 07:04:30,15.08846005,0.0001502,53.2162,242.3562,102.4071,257.7089,6.3383e-05,7.21e-06,0.0,0 STARLINK-3866,1 52500U 22049BB  23237.29479809  .00000721  00000-0  63383-4 0  9991,2 52500  53.2162 242.3562 0001502 102.4071 257.7089 15.08846005 72688,6917.862,95.437,540.766,538.688,0.0
52500.0,STARLINK-3866,PAYLOAD,2023-08-25 13:26:02,15.08845349,0.000135,53.2156,241.1649,84.891,275.2236,0.00015071,2.112e-05,0.0,0 STARLINK-3866,1 52500U 22049BB  23237.55975593  .00002112  00000-0  15071-3 0  9997,2 52500  53.2156 241.1649 0001350  84.8910 275.2236 15.08845349 72566,6917.864,95.437,540.663,538.795,0.0
52500.0,STARLINK-3866,PAYLOAD,2023-08-26 00:33:45,15.08832756,0.0001424,53.2157,239.0862,79.518,280.5973,5.8596e-05,6.45e-06,0.0,0 STARLINK-3866,1 52500U 22049BB  23238.02344734  .00000645  00000-0  58596-4 0  9996,2 52500  53.2157 239.0862 0001424  79.5180 280.5973 15.08832756 72792,6917.903,95.438,540.753,538.782,0.0
52500.0,STARLINK-3866,PAYLOAD,2023-08-26 05:19:55,15.08834232,0.0001437,53.216,238.1944,81.7779,278.3376,6.8566e-05,8.03e-06,0.0,0 STARLINK-3866,1 52500U 22049BB  23238.22216683  .00000803  00000-0  68566-4 0  9993,2 52500  53.2160 238.1944 0001437  81.7779 278.3376 15.08834232 72669,6917.898,95.438,540.757,538.769,0.0
52500.0,STARLINK-3866,PAYLOAD,2023-08-27 00:24:32,15.08842944,0.0001409,53.2162,234.6272,82.104,278.0112,1.8696e-05,1e-07,0.0,0 STARLINK-3866,1 52500U 22049BB  23239.01704374  .00000010  00000-0  18696-4 0  9999,2 52500  53.2162 234.6272 0001409  82.1040 278.0112 15.08842944 72946,6917.871,95.437,540.711,538.762,0.0
52500.0,STARLINK-3866,PAYLOAD,2023-08-27 05:10:41,15.08840758,0.000149,53.2173,233.7357,86.7661,273.3502,5.3699e-05,5.67e-06,0.0,0 STARLINK-3866,1 52500U 22049BB  23239.21576336  .00000567  00000-0  53699-4 0  9995,2 52500  53.2173 233.7357 0001490  86.7661 273.3502 15.08840758 72819,6917.878,95.438,540.774,538.712,0.0
52500.0,STARLINK-3866,PAYLOAD,2023-08-28 00:15:20,15.08833339,0.0001478,53.2168,230.165,93.1872,266.9289,4.5892e-05,4.42e-06,0.0,0 STARLINK-3866,1 52500U 22049BB  23240.01064880  .00000442  00000-0  45892-4 0  9999,2 52500  53.2168 230.1650 0001478  93.1872 266.9289 15.08833339 73090,6917.901,95.438,540.788,538.743,0.0
52500.0,STARLINK-3866,PAYLOAD,2023-08-28 16:09:11,15.0883514,0.0001404,53.2165,227.1898,91.8621,268.2532,4.101e-05,3.65e-06,0.0,0 STARLINK-3866,1 52500U 22049BB  23240.67304976  .00000365  00000-0  41010-4 0  9996,2 52500  53.2165 227.1898 0001404  91.8621 268.2532 15.08835140 73035,6917.895,95.438,540.732,538.789,0.0
52500.0,STARLINK-3866,PAYLOAD,2023-08-29 06:27:39,15.08842828,0.0001375,53.2164,224.5133,91.412,268.703,7.1539e-05,8.51e-06,0.0,0 STARLINK-3866,1 52500U 22049BB  23241.26920465  .00000851  00000-0  71539-4 0  9998,2 52500  53.2164 224.5133 0001375  91.4120 268.7030 15.08842828 73280,6917.872,95.437,540.688,538.786,0.0
52500.0,STARLINK-3866,PAYLOAD,2023-08-29 23:56:54,15.08833029,0.0001353,53.2163,221.2413,84.0607,276.054,3.3187e-05,2.4e-06,0.0,0 STARLINK-3866,1 52500U 22049BB  23241.99785342  .00000240  00000-0  33187-4 0  9990,2 52500  53.2163 221.2413 0001353  84.0607 276.0540 15.08833029 73391,6917.902,95.438,540.703,538.831,0.0
52500.0,STARLINK-3866,PAYLOAD,2023-08-30 15:50:45,15.08836899,0.0001343,53.2163,218.2679,89.7639,270.3507,6.0323e-05,6.72e-06,0.0,0 STARLINK-3866,1 52500U 22049BB  23242.66025160  .00000672  00000-0  60323-4 0  9991,2 52500  53.2163 218.2679 0001343  89.7639 270.3507 15.08836899 73339,6917.89,95.438,540.684,538.826,0.0
52500.0,STARLINK-3866,PAYLOAD,2023-08-31 04:33:50,15.08842211,0.000141,53.2164,215.8895,83.9949,276.1204,6.0648e-05,6.77e-06,0.0,0 STARLINK-3866,1 52500U 22049BB  23243.19016872  .00000677  00000-0  60648-4 0  9995,2 52500  53.2164 215.8895 0001410  83.9949 276.1204 15.08842211 73577,6917.874,95.437,540.714,538.763,0.0
52500.0,STARLINK-3866,PAYLOAD,2023-08-31 07:44:36,15.08844928,0.0001428,53.2164,215.2951,82.9225,277.1929,4.9224e-05,4.96e-06,0.0,0 STARLINK-3866,1 52500U 22049BB  23243.32264720  .00000496  00000-0  49224-4 0  9993,2 52500  53.2164 215.2951 0001428  82.9225 277.1929 15.08844928 73436,6917.865,95.437,540.718,538.742,0.0
52500.0,STARLINK-3866,PAYLOAD,2023-08-31 23:38:28,15.08835805,0.000137,53.2171,212.3213,83.4777,276.6371,6.8047e-05,7.95e-06,0.0,0 STARLINK-3866,1 52500U 22049BB  23243.98505210  .00000795  00000-0  68047-4 0  9993,2 52500  53.2171 212.3213 0001370  83.4777 276.6371 15.08835805 73694,6917.893,95.438,540.706,538.81,0.0
52500.0,STARLINK-3866,PAYLOAD,2023-09-01 04:24:37,15.08839655,0.0001573,53.2167,211.4268,96.0094,264.1077,9.3247e-05,1.196e-05,0.0,0 STARLINK-3866,1 52500U 22049BB  23244.18376923  .00001196  00000-0  93247-4 0  9999,2 52500  53.2167 211.4268 0001573  96.0094 264.1077 15.08839655 73564,6917.881,95.438,540.835,538.658,0.0
52500.0,STARLINK-3866,PAYLOAD,2023-09-02 07:26:10,15.08850296,0.0001209,53.2143,206.3733,91.325,268.7881,-8.0605e-06,-4.16e-06,0.0,0 STARLINK-3866,1 52500U 22049BB  23245.30984534 -.00000416  00000-0 -80605-5 0  9998,2 52500  53.2143 206.3733 0001209  91.3250 268.7881 15.08850296 73899,6917.849,95.437,540.55,538.878,0.0
